NORAD_CAT_ID,OBJECT_NAME,OBJECT_TYPE,EPOCH,MEAN_MOTION,ECCENTRICITY,INCLINATION,RA_OF_ASC_NODE,ARG_OF_PERICENTER,MEAN_ANOMALY,BSTAR,MEAN_MOTION_DOT,MEAN_MOTION_DDOT,TLE_LINE0,TLE_LINE1,TLE_LINE2,SEMIMAJOR_AXIS,PERIOD,APOGEE,PERIGEE,DECAYED
53273.0,STARLINK-4051,PAYLOAD,2024-04-24 21:35:23,15.08838625,0.0001359,53.2191,13.7662,106.9025,253.2116,0.00013964,1.935e-05,0.0,0 STARLINK-4051,1 53273U 22086AH  24115.89957392  .00001935  00000-0  13964-3 0  9997,2 53273  53.2191  13.7662 0001359 106.9025 253.2116 15.08838625 97966,6917.885,95.438,540.69,538.809,0.0
53273.0,STARLINK-4051,PAYLOAD,2024-04-25 02:21:31,15.08860512,0.0001012,53.2188,12.8763,113.7813,246.3285,0.00051928,7.991e-05,0.0,0 STARLINK-4051,1 53273U 22086AH  24116.09828595  .00007991  00000-0  51928-3 0  9992,2 53273  53.2188  12.8763 0001012 113.7813 246.3285 15.08860512 97994,6917.818,95.436,540.383,538.983,0.0
53273.0,STARLINK-4051,PAYLOAD,2024-04-25 21:26:09,15.08843589,0.0001991,53.2189,9.3032,135.4118,224.7034,-2.5421e-05,-6.93e-06,0.0,0 STARLINK-4051,1 53273U 22086AH  24116.89317007 -.00000693  00000-0 -25421-4 0  9995,2 53273  53.2189   9.3032 0001991 135.4118 224.7034 15.08843589 97942,6917.869,95.437,541.112,538.357,0.0
53273.0,STARLINK-4051,PAYLOAD,2024-04-26 00:36:56,15.08843491,0.0001732,53.2187,8.713,55.3243,304.7912,9.7422e-05,1.263e-05,0.0,0 STARLINK-4051,1 53273U 22086AH  24117.02565633  .00001263  00000-0  97422-4 0  9993,2 53273  53.2187   8.7130 0001732  55.3243 304.7912 15.08843491 98132,6917.87,95.437,540.933,538.537,0.0
53273.0,STARLINK-4051,PAYLOAD,2024-04-26 16:30:48,15.08847964,0.0001644,53.2169,5.7474,56.5809,303.534,0.00012319,1.673e-05,0.0,0 STARLINK-4051,1 53273U 22086AH  24117.68805622  .00001673  00000-0  12319-3 0  9996,2 53273  53.2169   5.7474 0001644  56.5809 303.5340 15.08847964 98066,6917.856,95.437,540.858,538.584,0.0
53273.0,STARLINK-4051,PAYLOAD,2024-04-27 10:00:01,15.08841821,0.0001597,53.219,2.4664,164.4877,195.6164,4.3257e-05,4.01e-06,0.0,0 STARLINK-4051,1 53273U 22086AH  24118.41668725  .00000401  00000-0  43257-4 0  9993,2 53273  53.2190   2.4664 0001597 164.4877 195.6164 15.08841821 98347,6917.875,95.437,540.845,538.635,0.0
53273.0,STARLINK-4051,PAYLOAD,2024-04-27 21:07:44,15.08837406,0.0001575,53.2185,0.3856,121.0096,239.1051,-9.528e-05,-1.804e-05,0.0,0 STARLINK-4051,1 53273U 22086AH  24118.88037585 -.00001804  00000-0 -95280-4 0  9991,2 53273  53.2185   0.3856 0001575 121.0096 239.1051 15.08837406 98241,6917.888,95.438,540.843,538.664,0.0
53273.0,STARLINK-4051,PAYLOAD,2024-04-27 22:43:07,15.08835131,0.0001237,53.2183,0.0919,110.0781,250.0344,-0.00012668,-2.303e-05,0.0,0 STARLINK-4051,1 53273U 22086AH  24118.94661762 -.00002303  00000-0 -12668-3 0  9991,2 53273  53.2183   0.0919 0001237 110.0781 250.0344 15.08835131 98420,6917.895,95.438,540.616,538.905,0.0
53273.0,STARLINK-4051,PAYLOAD,2024-04-28 01:53:53,15.08837321,0.000128,53.2189,359.4961,108.5629,251.5502,-7.9481e-05,-1.552e-05,0.0,0 STARLINK-4051,1 53273U 22086AH  24119.07909706 -.00001552  00000-0 -79481-4 0  9991,2 53273  53.2189 359.4961 0001280 108.5629 251.5502 15.08837321 98442,6917.889,95.438,540.639,538.868,0.0
53273.0,STARLINK-4051,PAYLOAD,2024-04-28 22:33:55,15.08839549,0.0001235,53.2179,355.6354,99.8069,260.3063,7.5809e-05,9.19e-06,0.0,0 STARLINK-4051,1 53273U 22086AH  24119.94021992  .00000919  00000-0  75809-4 0  9993,2 53273  53.2179 355.6354 0001235  99.8069 260.3063 15.08839549 98573,6917.882,95.438,540.601,538.892,0.0
53273.0,STARLINK-4051,PAYLOAD,2024-04-29 08:06:13,15.08840671,0.000117,53.2181,353.8523,113.3925,246.7191,0.00014148,1.965e-05,0.0,0 STARLINK-4051,1 53273U 22086AH  24120.33765996  .00001965  00000-0  14148-3 0  9997,2 53273  53.2181 353.8523 0001170 113.3925 246.7191 15.08840671 98630,6917.878,95.438,540.553,538.934,0.0
53273.0,STARLINK-4051,PAYLOAD,2024-04-29 22:24:42,15.08837679,0.000121,53.2188,351.1758,108.0941,252.0183,0.00028071,4.182e-05,0.0,0 STARLINK-4051,1 53273U 22086AH  24120.93382347  .00004182  00000-0  28071-3 0  9992,2 53273  53.2188 351.1758 0001210 108.0941 252.0183 15.08837679 98727,6917.887,95.438,540.59,538.915,0.0
53273.0,STARLINK-4051,PAYLOAD,2024-04-30 07:57:00,15.08842673,0.0001252,53.2186,349.3914,111.9231,248.1894,0.00014952,2.093e-05,0.0,0 STARLINK-4051,1 53273U 22086AH  24121.33126068  .00002093  00000-0  14952-3 0  9995,2 53273  53.2186 349.3914 0001252 111.9231 248.1894 15.08842673 98612,6917.872,95.437,540.603,538.871,0.0
53273.0,STARLINK-4051,PAYLOAD,2024-04-30 22:15:29,15.08842748,0.0001344,53.219,346.7159,117.1182,242.9947,9.4826e-05,1.222e-05,0.0,0 STARLINK-4051,1 53273U 22086AH  24121.92742078  .00001222  00000-0  94826-4 0  9997,2 53273  53.2190 346.7159 0001344 117.1182 242.9947 15.08842748 98876,6917.872,95.437,540.667,538.807,0.0
53273.0,STARLINK-4051,PAYLOAD,2024-05-01 07:47:47,15.0884477,0.0001195,53.2198,344.9305,100.4283,259.6844,0.00010226,1.34e-05,0.0,0 STARLINK-4051,1 53273U 22086AH  24122.32485932  .00001340  00000-0  10226-3 0  9997,2 53273  53.2198 344.9305 0001195 100.4283 259.6844 15.08844770 98933,6917.866,95.437,540.557,538.904,0.0
53273.0,STARLINK-4051,PAYLOAD,2024-05-02 20:21:40,15.0884571,0.0001052,53.2179,338.0896,85.724,274.3872,8.622e-05,1.085e-05,0.0,0 STARLINK-4051,1 53273U 22086AH  24123.84838026  .00001085  00000-0  86220-4 0  9995,2 53273  53.2179 338.0896 0001052  85.7240 274.3872 15.08845710 98997,6917.863,95.437,540.456,539.0,0.0
53273.0,STARLINK-4051,PAYLOAD,2024-05-02 23:32:25,15.08852299,0.0001087,53.2183,337.4946,81.1276,278.9839,0.00013682,1.891e-05,0.0,0 STARLINK-4051,1 53273U 22086AH  24123.98085437  .00001891  00000-0  13682-3 0  9996,2 53273  53.2183 337.4946 0001087  81.1276 278.9839 15.08852299 99015,6917.843,95.437,540.46,538.956,0.0
53273.0,STARLINK-4051,PAYLOAD,2024-05-03 07:29:21,15.0884449,0.0001032,53.2176,336.0075,91.1203,268.9907,5.7388e-05,6.26e-06,0.0,0 STARLINK-4051,1 53273U 22086AH  24124.31205942  .00000626  00000-0  57388-4 0  9996,2 53273  53.2176 336.0075 0001032  91.1203 268.9907 15.08844490 99060,6917.867,95.437,540.446,539.018,0.0
53273.0,STARLINK-4051,PAYLOAD,2024-05-03 20:12:27,15.08843451,0.0001063,53.2172,333.6264,98.5655,261.5458,3.6597e-05,2.95e-06,0.0,0 STARLINK-4051,1 53273U 22086AH  24124.84198211  .00000295  00000-0  36597-4 0  9995,2 53273  53.2172 333.6264 0001063  98.5655 261.5458 15.08843451 99319,6917.87,95.437,540.47,538.999,0.0
53273.0,STARLINK-4051,PAYLOAD,2024-05-04 07:20:09,15.08841743,9.6e-05,53.2168,331.5452,95.9349,264.1752,4.3144e-05,3.99e-06,0.0,0 STARLINK-4051,1 53273U 22086AH  24125.30566184  .00000399  00000-0  43144-4 0  9996,2 53273  53.2168 331.5452 0000960  95.9349 264.1752 15.08841743 99213,6917.875,95.437,540.404,539.076,0.0
53273.0,STARLINK-4051,PAYLOAD,2024-05-05 13:32:28,15.08841041,0.0001094,53.2176,325.895,103.9499,256.1615,9.278e-05,1.189e-05,0.0,0 STARLINK-4051,1 53273U 22086AH  24126.56422093  .00001189  00000-0  92780-4 0  9993,2 53273  53.2176 325.8950 0001094 103.9499 256.1615 15.08841041 99407,6917.877,95.437,540.499,538.985,0.0
53273.0,STARLINK-4051,PAYLOAD,2024-05-05 19:54:00,15.08850278,0.0001118,53.2181,324.707,92.7024,267.4096,8.3721e-05,1.045e-05,0.0,0 STARLINK-4051,1 53273U 22086AH  24126.82917570  .00001045  00000-0  83721-4 0  9997,2 53273  53.2181 324.7070 0001118  92.7024 267.4096 15.08850278 99613,6917.849,95.437,540.487,538.941,0.0
53273.0,STARLINK-4051,PAYLOAD,2024-05-06 19:44:47,15.0885293,9.45e-05,53.2177,320.246,96.5185,263.5915,4.4873e-05,4.27e-06,0.0,0 STARLINK-4051,1 53273U 22086AH  24127.82277355  .00000427  00000-0  44873-4 0  9996,2 53273  53.2177 320.2460 0000945  96.5185 263.5915 15.08852930 99769,6917.841,95.437,540.36,539.052,0.0
53273.0,STARLINK-4051,PAYLOAD,2024-05-07 05:17:06,15.08847047,7.85e-05,53.2171,318.4601,80.519,279.5891,5.8713e-05,6.47e-06,0.0,0 STARLINK-4051,1 53273U 22086AH  24128.22021595  .00000647  00000-0  58713-4 0  9996,2 53273  53.2171 318.4601 0000785  80.5190 279.5891 15.08847047 99651,6917.859,95.437,540.267,539.181,0.0
53273.0,STARLINK-4051,PAYLOAD,2024-05-07 11:38:40,15.08837222,0.0001398,53.2182,317.2742,86.0279,274.0873,4.4662e-05,4.23e-06,0.0,0 STARLINK-4051,1 53273U 22086AH  24128.48518533  .00000423  00000-0  44662-4 0  9997,2 53273  53.2182 317.2742 0001398  86.0279 274.0873 15.08837222 99694,6917.889,95.438,540.721,538.787,0.0
53273.0,STARLINK-4051,PAYLOAD,2024-05-07 18:00:12,15.0883278,0.0001158,53.2188,316.0855,95.7018,264.4106,-5.9867e-05,-1.24e-05,0.0,0 STARLINK-4051,1 53273U 22086AH  24128.75015028 -.00001240  00000-0 -59867-4 0  9991,2 53273  53.2188 316.0855 0001158  95.7018 264.4106 15.08832780 99904,6917.902,95.438,540.569,538.966,0.0
53273.0,STARLINK-4051,PAYLOAD,2024-05-08 05:07:54,15.08834435,0.0001139,53.2193,314.0044,89.7585,270.3538,-7.1605e-06,-4.02e-06,0.0,0 STARLINK-4051,1 53273U 22086AH  24129.21383013 -.00000402  00000-0 -71605-5 0  9999,2 53273  53.2193 314.0044 0001139  89.7585 270.3538 15.08834435 99970,6917.897,95.438,540.55,538.974,0.0
53273.0,STARLINK-4051,PAYLOAD,2024-05-08 19:26:22,15.08844623,9e-05,53.217,311.3273,92.8473,267.2622,2.9664e-05,1.84e-06,0.0,0 STARLINK-4051,1 53273U 22086AH  24129.80998415  .00000184  00000-0  29664-4 0  9994,2 53273  53.2170 311.3273 0000900  92.8473 267.2622 15.08844623 99895,6917.866,95.437,540.354,539.109,0.0
53273.0,STARLINK-4051,PAYLOAD,2024-05-09 11:20:14,15.08839498,0.0001203,53.2162,308.3525,81.981,278.1319,0.00016085,2.273e-05,0.0,0 STARLINK-4051,1 53273U 22086AH  24130.47238707  .00002273  00000-0  16085-3 0  9993,2 53273  53.2162 308.3525 0001203  81.9810 278.1319 15.08839498100164,6917.882,95.438,540.579,538.915,0.0
53273.0,STARLINK-4051,PAYLOAD,2024-05-09 19:17:09,15.08845318,0.0001003,53.2164,306.8659,78.7019,281.4086,0.00026349,3.909e-05,0.0,0 STARLINK-4051,1 53273U 22086AH  24130.80358403  .00003909  00000-0  26349-3 0  9997,2 53273  53.2164 306.8659 0001003  78.7019 281.4086 15.08845318100212,6917.864,95.437,540.423,539.035,0.0
